start=new Date('2022-09-09T00:00:00.000Z').valueOf();
sats=[{"COUNTRY_CODE":"US","REV_AT_EPOCH":"11195","DECAY_DATE":null,"MEAN_MOTION_DDOT":"0.0000000000000","TLE_LINE2":"2 46348  53.0555 334.0774 0001516  76.2874 283.8284 15.06406673111955","NORAD_CAT_ID":"46348","APOAPSIS":"548.243","PERIOD":"95.592","MEAN_ANOMALY":"283.8284","OBJECT_ID":"2020-062Z","TLE_LINE1":"1 46348U 20062Z   22251.62300688  .00010836  00000-0  74510-3 0  9998","EPOCH":"2022-09-08T14:57:07.794432","PERIAPSIS":"546.143","REF_FRAME":"TEME","MEAN_ELEMENT_THEORY":"SGP4","MEAN_MOTION":"15.06406673","SITE":"AFETR","OBJECT_TYPE":"PAYLOAD","OBJECT_NAME":"STARLINK-1553","ARG_OF_PERICENTER":"76.2874","GP_ID":"212090951","MEAN_MOTION_DOT":"0.00010836","ECCENTRICITY":"0.00015160","TIME_SYSTEM":"UTC","LAUNCH_DATE":"2020-09-03","INCLINATION":"53.0555","RA_OF_ASC_NODE":"334.0774","EPHEMERIS_TYPE":"0","ELEMENT_SET_NO":"999","BSTAR":"0.00074510000000","SEMIMAJOR_AXIS":"6925.328","FILE":"3564431","RCS_SIZE":"LARGE","CENTER_NAME":"EARTH","CLASSIFICATION_TYPE":"U"},{"REF_FRAME":"TEME","EPOCH":"2022-09-08T21:14:38.548896","TLE_LINE1":"1 46349U 20062AA  22251.88516839  .00004301  00000-0  30750-3 0  9992","PERIAPSIS":"545.990","MEAN_ELEMENT_THEORY":"SGP4","DECAY_DATE":null,"MEAN_MOTION_DDOT":"0.0000000000000","REV_AT_EPOCH":"11234","COUNTRY_CODE":"US","MEAN_ANOMALY":"294.9687","OBJECT_ID":"2020-062AA","PERIOD":"95.592","APOAPSIS":"548.451","NORAD_CAT_ID":"46349","TLE_LINE2":"2 46349  53.0540 307.9089 0001777  65.1486 294.9687 15.06397680112344","SEMIMAJOR_AXIS":"6925.356","EPHEMERIS_TYPE":"0","BSTAR":"0.00030750000000","ELEMENT_SET_NO":"999","RA_OF_ASC_NODE":"307.9089","INCLINATION":"53.0540","CLASSIFICATION_TYPE":"U","CENTER_NAME":"EARTH","RCS_SIZE":"LARGE","FILE":"3564431","GP_ID":"212089709","MEAN_MOTION_DOT":"0.00004301","OBJECT_TYPE":"PAYLOAD","SITE":"AFETR","ARG_OF_PERICENTER":"65.1486","MEAN_MOTION":"15.06397680","OBJECT_NAME":"STARLINK-1575","LAUNCH_DATE":"2020-09-03","TIME_SYSTEM":"UTC","ECCENTRICITY":"0.00017770"},{"INCLINATION":"53.0546","RA_OF_ASC_NODE":"354.2702","EPHEMERIS_TYPE":"0","BSTAR":"0.00059238000000","ELEMENT_SET_NO":"999","SEMIMAJOR_AXIS":"6925.347","FILE":"3564431","RCS_SIZE":"LARGE","CENTER_NAME":"EARTH","CLASSIFICATION_TYPE":"U","MEAN_MOTION":"15.06400558","SITE":"AFETR","OBJECT_TYPE":"PAYLOAD","OBJECT_NAME":"STARLINK-1617","ARG_OF_PERICENTER":"77.1743","GP_ID":"212089958","MEAN_MOTION_DOT":"0.00008553","ECCENTRICITY":"0.00015750","TIME_SYSTEM":"UTC","LAUNCH_DATE":"2020-09-03","EPOCH":"2022-09-08T14:01:24.822048","TLE_LINE1":"1 46350U 20062AB  22251.58431507  .00008553  00000-0  59238-3 0  9994","PERIAPSIS":"546.121","REF_FRAME":"TEME","MEAN_ELEMENT_THEORY":"SGP4","COUNTRY_CODE":"US","REV_AT_EPOCH":"11167","DECAY_DATE":null,"MEAN_MOTION_DDOT":"0.0000000000000","TLE_LINE2":"2 46350  53.0546 354.2702 0001575  77.1743 282.9422 15.06400558111672","NORAD_CAT_ID":"46350","APOAPSIS":"548.303","PERIOD":"95.592","MEAN_ANOMALY":"282.9422","OBJECT_ID":"2020-062AB"},{"MEAN_ELEMENT_THEORY":"SGP4","EPOCH":"2022-09-08T10:56:55.715424","TLE_LINE1":"1 46351U 20062AC  22251.45620041  .00016372  00000-0  11150-2 0  9992","PERIAPSIS":"546.172","REF_FRAME":"TEME","TLE_LINE2":"2 46351  53.0556 334.8103 0001441  81.3099 278.8053 15.06414283111940","NORAD_CAT_ID":"46351","APOAPSIS":"548.168","PERIOD":"95.591","MEAN_ANOMALY":"278.8053","OBJECT_ID":"2020-062AC","COUNTRY_CODE":"US","REV_AT_EPOCH":"11194","DECAY_DATE":null,"MEAN_MOTION_DDOT":"0.0000000000000","FILE":"3564431","RCS_SIZE":"LARGE","CENTER_NAME":"EARTH","CLASSIFICATION_TYPE":"U","INCLINATION":"53.0556","RA_OF_ASC_NODE":"334.8103","EPHEMERIS_TYPE":"0","BSTAR":"0.00111500000000","ELEMENT_SET_NO":"999","SEMIMAJOR_AXIS":"6925.305","ECCENTRICITY":"0.00014410","TIME_SYSTEM":"UTC","LAUNCH_DATE":"2020-09-03","OBJECT_TYPE":"PAYLOAD","SITE":"AFETR","OBJECT_NAME":"STARLINK-1646","ARG_OF_PERICENTER":"81.3099","MEAN_MOTION":"15.06414283","MEAN_MOTION_DOT":"0.00016372","GP_ID":"212090709"},{"MEAN_ELEMENT_THEORY":"SGP4","REF_FRAME":"TEME","EPOCH":"2022-09-08T12:07:16.736448","TLE_LINE1":"1 46352U 20062AD  22251.50505482  .00003128  00000-0  22889-3 0  9997","PERIAPSIS":"546.297","MEAN_ANOMALY":"270.7366","OBJECT_ID":"2020-062AD","TLE_LINE2":"2 46352  53.0572 334.6160 0001388  89.3782 270.7366 15.06385575111946","NORAD_CAT_ID":"46352","APOAPSIS":"548.219","PERIOD":"95.593","MEAN_MOTION_DDOT":"0.0000000000000","DECAY_DATE":null,"COUNTRY_CODE":"US","REV_AT_EPOCH":"11194","CENTER_NAME":"EARTH","CLASSIFICATION_TYPE":"U","FILE":"3564431","RCS_SIZE":"LARGE","SEMIMAJOR_AXIS":"6925.393","INCLINATION":"53.0572","RA_OF_ASC_NODE":"334.6160","EPHEMERIS_TYPE":"0","ELEMENT_SET_NO":"999","BSTAR":"0.00022889000000","TIME_SYSTEM":"UTC","LAUNCH_DATE":"2020-09-03","ECCENTRICITY":"0.00013880","MEAN_MOTION_DOT":"0.00003128","GP_ID":"212090451","OBJECT_NAME":"STARLINK-1653","SITE":"AFETR","OBJECT_TYPE":"PAYLOAD","MEAN_MOTION":"15.06385575","ARG_OF_PERICENTER":"89.3782"},{"RCS_SIZE":"LARGE","FILE":"3564431","CLASSIFICATION_TYPE":"U","CENTER_NAME":"EARTH","BSTAR":"0.00034818000000","ELEMENT_SET_NO":"999","EPHEMERIS_TYPE":"0","RA_OF_ASC_NODE":"353.7359","INCLINATION":"53.0556","SEMIMAJOR_AXIS":"6925.380","ECCENTRICITY":"0.00014960","LAUNCH_DATE":"2020-09-03","TIME_SYSTEM":"UTC","SITE":"AFETR","OBJECT_TYPE":"PAYLOAD","ARG_OF_PERICENTER":"82.6590","OBJECT_NAME":"STARLINK-1656","MEAN_MOTION":"15.06389717","GP_ID":"212089210","MEAN_MOTION_DOT":"0.00004907","MEAN_ELEMENT_THEORY":"SGP4","EPOCH":"2022-09-08T16:51:15.550848","TLE_LINE1":"1 46353U 20062AE  22251.70226332  .00004907  00000-0  34818-3 0  9995","PERIAPSIS":"546.209","REF_FRAME":"TEME","PERIOD":"95.593","APOAPSIS":"548.281","NORAD_CAT_ID":"46353","TLE_LINE2":"2 46353  53.0556 353.7359 0001496  82.6590 277.4569 15.06389717111686","MEAN_ANOMALY":"277.4569","OBJECT_ID":"2020-062AE","REV_AT_EPOCH":"11168","COUNTRY_CODE":"US","MEAN_MOTION_DDOT":"0.0000000000000","DECAY_DATE":null},{"DECAY_DATE":null,"MEAN_MOTION_DDOT":"0.0000000000000","REV_AT_EPOCH":"11184","COUNTRY_CODE":"US","MEAN_ANOMALY":"281.9539","OBJECT_ID":"2020-062AF","PERIOD":"95.592","APOAPSIS":"548.235","NORAD_CAT_ID":"46354","TLE_LINE2":"2 46354  53.0558 354.3662 0001467  78.1614 281.9539 15.06398151111845","REF_FRAME":"TEME","EPOCH":"2022-09-08T13:24:15.276096","TLE_LINE1":"1 46354U 20062AF  22251.55851014  .00006845  00000-0  47797-3 0  9993","PERIAPSIS":"546.203","MEAN_ELEMENT_THEORY":"SGP4","GP_ID":"212055533","MEAN_MOTION_DOT":"0.00006845","SITE":"AFETR","OBJECT_TYPE":"PAYLOAD","MEAN_MOTION":"15.06398151","OBJECT_NAME":"STARLINK-1657","ARG_OF_PERICENTER":"78.1614","LAUNCH_DATE":"2020-09-03","TIME_SYSTEM":"UTC","ECCENTRICITY":"0.00014670","SEMIMAJOR_AXIS":"6925.354","EPHEMERIS_TYPE":"0","ELEMENT_SET_NO":"999","BSTAR":"0.00047797000000","RA_OF_ASC_NODE":"354.3662","INCLINATION":"53.0558","CLASSIFICATION_TYPE":"U","CENTER_NAME":"EARTH","RCS_SIZE":"LARGE","FILE":"3563813"},{"OBJECT_NAME":"STARLINK-1661","SITE":"AFETR","OBJECT_TYPE":"PAYLOAD","MEAN_MOTION":"15.06407404","ARG_OF_PERICENTER":"87.9802","GP_ID":"212090209","MEAN_MOTION_DOT":"0.00004113","ECCENTRICITY":"0.00013970","TIME_SYSTEM":"UTC","LAUNCH_DATE":"2020-09-03","INCLINATION":"53.0549","RA_OF_ASC_NODE":"353.3104","BSTAR":"0.00029481000000","EPHEMERIS_TYPE":"0","ELEMENT_SET_NO":"999","SEMIMAJOR_AXIS":"6925.326","FILE":"3564431","RCS_SIZE":"LARGE","CENTER_NAME":"EARTH","CLASSIFICATION_TYPE":"U","COUNTRY_CODE":"US","REV_AT_EPOCH":"11170","DECAY_DATE":null,"MEAN_MOTION_DDOT":"0.0000000000000","TLE_LINE2":"2 46355  53.0549 353.3104 0001397  87.9802 272.1347 15.06407404111701","NORAD_CAT_ID":"46355","APOAPSIS":"548.158","PERIOD":"95.592","MEAN_ANOMALY":"272.1347","OBJECT_ID":"2020-062AG","TLE_LINE1":"1 46355U 20062AG  22251.79808278  .00004113  00000-0  29481-3 0  9990","PERIAPSIS":"546.223","EPOCH":"2022-09-08T19:09:14.352192","REF_FRAME":"TEME","MEAN_ELEMENT_THEORY":"SGP4"},{"MEAN_ANOMALY":"264.2839","OBJECT_ID":"2020-062AH","PERIOD":"95.592","APOAPSIS":"548.257","NORAD_CAT_ID":"46356","TLE_LINE2":"2 46356  53.0552 354.4412 0001490  95.8319 264.2839 15.06396228111849","MEAN_MOTION_DDOT":"0.0000000000000","DECAY_DATE":null,"REV_AT_EPOCH":"11184","COUNTRY_CODE":"US","MEAN_ELEMENT_THEORY":"SGP4","REF_FRAME":"TEME","EPOCH":"2022-09-08T13:01:39.379296","TLE_LINE1":"1 46356U 20062AH  22251.54281689  .00005715  00000-0  40229-3 0  9997","PERIAPSIS":"546.193","LAUNCH_DATE":"2020-09-03","TIME_SYSTEM":"UTC","ECCENTRICITY":"0.00014900","MEAN_MOTION_DOT":"0.00005715","GP_ID":"212055893","SITE":"AFETR","OBJECT_TYPE":"PAYLOAD","ARG_OF_PERICENTER":"95.8319","OBJECT_NAME":"STARLINK-1665","MEAN_MOTION":"15.06396228","CLASSIFICATION_TYPE":"U","CENTER_NAME":"EARTH","RCS_SIZE":"LARGE","FILE":"3563834","SEMIMAJOR_AXIS":"6925.360","EPHEMERIS_TYPE":"0","BSTAR":"0.00040229000000","ELEMENT_SET_NO":"999","RA_OF_ASC_NODE":"354.4412","INCLINATION":"53.0552"},{"REF_FRAME":"TEME","TLE_LINE1":"1 46357U 20062AJ  22251.54191390  .00005083  00000-0  35996-3 0  9990","EPOCH":"2022-09-08T13:00:21.360960","PERIAPSIS":"546.290","MEAN_ELEMENT_THEORY":"SGP4","MEAN_MOTION_DDOT":"0.0000000000000","DECAY_DATE":null,"REV_AT_EPOCH":"11194","COUNTRY_CODE":"US","MEAN_ANOMALY":"275.1003","OBJECT_ID":"2020-062AJ","APOAPSIS":"548.199","PERIOD":"95.593","TLE_LINE2":"2 46357  53.0569 334.4437 0001378  85.0144 275.1003 15.06389995111943","NORAD_CAT_ID":"46357","SEMIMAJOR_AXIS":"6925.379","ELEMENT_SET_NO":"999","EPHEMERIS_TYPE":"0","BSTAR":"0.00035996000000","INCLINATION":"53.0569","RA_OF_ASC_NODE":"334.4437","CENTER_NAME":"EARTH","CLASSIFICATION_TYPE":"U","RCS_SIZE":"LARGE","FILE":"3564431","GP_ID":"212089710","MEAN_MOTION_DOT":"0.00005083","OBJECT_NAME":"STARLINK-1666","SITE":"AFETR","OBJECT_TYPE":"PAYLOAD","MEAN_MOTION":"15.06389995","ARG_OF_PERICENTER":"85.0144","LAUNCH_DATE":"2020-09-03","TIME_SYSTEM":"UTC","ECCENTRICITY":"0.00013780"}];
